{"fetched_at":"2026-03-30T06:02:59Z","count":15439,"tles":[{"name":"STARLINK-31040","line1":"1 58722U 24002T   26087.56294460  .00001522  00000+0  63506-4 0  9994","line2":"2 58722  53.1604 142.3524 0001112  82.8669 277.2458 15.30196580124909","category":"Starlink"}]}